NORAD_CAT_ID,OBJECT_NAME,OBJECT_TYPE,EPOCH,MEAN_MOTION,ECCENTRICITY,INCLINATION,RA_OF_ASC_NODE,ARG_OF_PERICENTER,MEAN_ANOMALY,BSTAR,MEAN_MOTION_DOT,MEAN_MOTION_DDOT,TLE_LINE0,TLE_LINE1,TLE_LINE2,SEMIMAJOR_AXIS,PERIOD,APOGEE,PERIGEE,DECAYED
56459.0,STARLINK-6048,PAYLOAD,2023-06-19 22:00:00,15.51081925,0.0003464,70.0,132.8602,262.855,312.6293,-0.017882,-0.00958588,0.0,0 STARLINK-6048,1 56459U 23064M   23170.91667824 -.00958588  00000-0 -17882-1 0  9992,2 56459  70.0000 132.8602 0003464 262.8550 312.6293 15.51081925  6677,6791.703,92.838,415.921,411.215,0.0
56459.0,STARLINK-6048,PAYLOAD,2023-06-20 14:00:01,15.49737554,0.0003194,69.9999,131.0398,267.0079,68.336,-0.017737,-0.00898117,0.0,0 STARLINK-6048,1 56459U 23064M   23171.58334491 -.00898117  00000-0 -17737-1 0  9997,2 56459  69.9999 131.0398 0003194 267.0079  68.3360 15.49737554  6771,6795.63,92.919,419.666,415.325,0.0
56459.0,STARLINK-6048,PAYLOAD,2023-06-20 22:00:00,15.49134494,0.0003305,70.0002,130.1314,265.5021,128.5683,-0.019475,-0.00972869,0.0,0 STARLINK-6048,1 56459U 23064M   23171.91667824 -.00972869  00000-0 -19475-1 0  9991,2 56459  70.0002 130.1314 0003305 265.5021 128.5683 15.49134494  1306,6797.394,92.955,421.505,417.012,0.0
56459.0,STARLINK-6048,PAYLOAD,2023-06-21 14:00:01,15.47777751,0.0003139,69.9999,128.3162,268.8495,240.3893,-0.018802,-0.00901451,0.0,0 STARLINK-6048,1 56459U 23064M   23172.58334491 -.00901451  00000-0 -18802-1 0  9998,2 56459  69.9999 128.3162 0003139 268.8495 240.3893 15.47777751  6931,6801.365,93.037,425.365,421.095,0.0
56459.0,STARLINK-6048,PAYLOAD,2023-06-21 22:00:01,15.47167053,0.0003191,70.0004,127.4101,265.824,299.8631,-0.020442,-0.00954745,0.0,0 STARLINK-6048,1 56459U 23064M   23172.91668981 -.00954745  00000-0 -20442-1 0  9996,2 56459  70.0004 127.4101 0003191 265.8240 299.8631 15.47167053  1300,6803.155,93.073,427.191,422.849,0.0
56459.0,STARLINK-6048,PAYLOAD,2023-06-22 06:00:00,15.46468818,0.0003245,70.0003,126.5047,273.0585,348.199,-0.01925,-0.00871793,0.0,0 STARLINK-6048,1 56459U 23064M   23173.25001157 -.00871793  00000-0 -19250-1 0  9996,2 56459  70.0003 126.5047 0003245 273.0585 348.1990 15.46468818  7035,6805.203,93.115,429.276,424.859,0.0
56459.0,STARLINK-6048,PAYLOAD,2023-06-22 20:00:01,15.45361969,0.0003317,70.0001,124.9226,264.8103,1.8814,-0.021169,-0.00931012,0.0,0 STARLINK-6048,1 56459U 23064M   23173.83334491 -.00931012  00000-0 -21169-1 0  9993,2 56459  70.0001 124.9226 0003317 264.8103   1.8814 15.45361969  7124,6808.452,93.182,432.575,428.058,0.0
56459.0,STARLINK-6048,PAYLOAD,2023-06-23 22:00:01,15.43255218,0.0003222,70.0001,121.9917,267.2474,260.4158,-0.023543,-0.00960965,0.0,0 STARLINK-6048,1 56459U 23064M   23174.91668981 -.00960965  00000-0 -23543-1 0  9994,2 56459  70.0001 121.9917 0003222 267.2474 260.4158 15.43255218  7290,6814.647,93.309,438.707,434.316,0.0
56459.0,STARLINK-6048,PAYLOAD,2023-06-24 14:00:01,15.41895511,0.0003352,69.9996,120.1926,267.936,0.7499,-0.022435,-0.00881349,0.0,0 STARLINK-6048,1 56459U 23064M   23175.58334491 -.00881349  00000-0 -22435-1 0  9991,2 56459  69.9996 120.1926 0003352 267.9360   0.7499 15.41895511  7394,6818.652,93.392,442.803,438.232,0.0
56459.0,STARLINK-6048,PAYLOAD,2023-06-25 06:00:00,15.4059454,0.0003545,69.9996,118.3971,272.6245,93.9948,-0.023305,-0.00877053,0.0,0 STARLINK-6048,1 56459U 23064M   23176.25001157 -.00877053  00000-0 -23305-1 0  9990,2 56459  69.9996 118.3971 0003545 272.6245  93.9948 15.40594540  7493,6822.49,93.47,446.774,441.937,0.0
56459.0,STARLINK-6048,PAYLOAD,2023-06-25 22:00:01,15.39335665,0.0003503,69.9997,116.6048,269.102,192.3772,-0.026638,-0.00954587,0.0,0 STARLINK-6048,1 56459U 23064M   23176.91668981 -.00954587  00000-0 -26638-1 0  9997,2 56459  69.9997 116.6048 0003503 269.1020 192.3772 15.39335665  7607,6826.21,93.547,450.466,445.683,0.0
56459.0,STARLINK-6048,PAYLOAD,2023-06-26 14:00:01,15.37979244,0.0003349,69.9993,114.8161,270.3232,282.7873,-0.025313,-0.00874227,0.0,0 STARLINK-6048,1 56459U 23064M   23177.58334491 -.00874227  00000-0 -25313-1 0  9998,2 56459  69.9993 114.8161 0003349 270.3232 282.7873 15.37979244  7708,6830.223,93.629,454.375,449.8,0.0
56459.0,STARLINK-6048,PAYLOAD,2023-06-27 06:00:00,15.36683706,0.0003451,69.9994,113.0311,272.7481,8.9064,-0.026548,-0.00878734,0.0,0 STARLINK-6048,1 56459U 23064M   23178.25001157 -.00878734  00000-0 -26548-1 0  9991,2 56459  69.9994 113.0311 0003451 272.7481   8.9064 15.36683706  7808,6834.061,93.708,458.284,453.568,0.0
56459.0,STARLINK-6048,PAYLOAD,2023-06-27 22:00:00,15.35428959,0.0003538,69.9994,111.2499,268.96,98.1032,-0.030813,-0.00970927,0.0,0 STARLINK-6048,1 56459U 23064M   23178.91667824 -.00970927  00000-0 -30813-1 0  9990,2 56459  69.9994 111.2499 0003538 268.9600  98.1032 15.35428959  7904,6837.784,93.785,462.068,457.229,0.0
56459.0,STARLINK-6048,PAYLOAD,2023-06-28 14:00:01,15.34050758,0.0003325,69.9994,109.4721,270.9272,178.451,-0.027811,-0.00848397,0.0,0 STARLINK-6048,1 56459U 23064M   23179.58334491 -.00848397  00000-0 -27811-1 0  9994,2 56459  69.9994 109.4721 0003325 270.9272 178.4510 15.34050758  8016,6841.878,93.869,466.018,461.469,0.0
56459.0,STARLINK-6048,PAYLOAD,2023-06-29 22:00:00,15.31506206,0.0003255,70.0,105.9273,268.0576,336.4985,-0.034458,-0.00972123,0.0,0 STARLINK-6048,1 56459U 23064M   23180.91667824 -.00972123  00000-0 -34458-1 0  9992,2 56459  70.0000 105.9273 0003255 268.0576 336.4985 15.31506206  8212,6849.455,94.025,473.549,469.09,0.0
56459.0,STARLINK-6048,PAYLOAD,2023-06-30 22:00:00,15.29546115,0.0003343,70.0005,103.2777,268.7844,83.9556,-0.036402,-0.00966683,0.0,0 STARLINK-6048,1 56459U 23064M   23181.91667824 -.00966683  00000-0 -36402-1 0  9998,2 56459  70.0005 103.2777 0003343 268.7844  83.9556 15.29546115  8364,6855.305,94.146,479.462,474.878,0.0
56459.0,STARLINK-6048,PAYLOAD,2023-07-01 12:00:00,15.2836327,0.0003227,70.0003,101.7357,269.1949,53.4131,-0.034941,-0.00888867,0.0,0 STARLINK-6048,1 56459U 23064M   23182.50001157 -.00888867  00000-0 -34941-1 0  9998,2 56459  70.0003 101.7357 0003227 269.1949  53.4131 15.28363270  8450,6858.842,94.218,482.92,478.493,0.0
56459.0,STARLINK-6048,PAYLOAD,2023-07-02 04:00:00,15.27063612,0.0003255,70.0008,99.9768,273.5221,114.5517,-0.035955,-0.00879801,0.0,0 STARLINK-6048,1 56459U 23064M   23183.16667824 -.00879801  00000-0 -35955-1 0  9994,2 56459  70.0008  99.9768 0003255 273.5221 114.5517 15.27063612  8567,6862.733,94.299,486.832,482.364,0.0
56459.0,STARLINK-6048,PAYLOAD,2023-07-04 06:00:02,15.23570482,0.0003032,70.0005,94.5023,268.6688,34.205,0.00059946,0.00014282,0.0,0 STARLINK-6048,1 56459U 23064M   23185.25002315  .00014282  00000-0  59946-3 0  9994,2 56459  70.0005  94.5023 0003032 268.6688  34.2050 15.23570482  8872,6873.218,94.515,497.167,492.999,0.0
56459.0,STARLINK-6048,PAYLOAD,2023-07-04 14:00:01,15.22313251,0.0003223,70.0006,93.6304,264.4453,64.7416,-0.039516,-0.00841527,0.0,0 STARLINK-6048,1 56459U 23064M   23185.58334491 -.00841527  00000-0 -39516-1 0  9994,2 56459  70.0006  93.6304 0003223 264.4453  64.7416 15.22313251  8929,6877.002,94.593,501.084,496.651,0.0
56459.0,STARLINK-6048,PAYLOAD,2023-07-04 22:00:01,15.21699407,0.0003221,70.0007,92.7585,267.3072,87.8302,-0.044621,-0.00937272,0.0,0 STARLINK-6048,1 56459U 23064M   23185.91668981 -.00937272  00000-0 -44621-1 0  9991,2 56459  70.0007  92.7585 0003221 267.3072  87.8302 15.21699407  8972,6878.851,94.631,502.932,498.501,0.0
56459.0,STARLINK-6048,PAYLOAD,2023-07-06 06:00:00,15.19105443,0.000304,69.9998,89.28,274.124,176.6813,-0.048759,-0.00948386,0.0,0 STARLINK-6048,1 56459U 23064M   23187.25001157 -.00948386  00000-0 -48759-1 0  9990,2 56459  69.9998  89.2800 0003040 274.1240 176.6813 15.19105443  9188,6886.68,94.793,510.638,506.451,0.0
56459.0,STARLINK-6048,PAYLOAD,2023-07-07 06:00:00,15.1715101,0.0002919,69.9994,86.6801,273.1977,241.2,-0.051867,-0.00953045,0.0,0 STARLINK-6048,1 56459U 23064M   23188.25001157 -.00953045  00000-0 -51867-1 0  9993,2 56459  69.9994  86.6801 0002919 273.1977 241.2000 15.17151010  9339,6892.593,94.915,516.47,512.446,0.0
56459.0,STARLINK-6048,PAYLOAD,2023-07-07 22:00:00,15.158106,0.0003057,69.9995,84.9513,269.0439,283.8568,-0.05125,-0.00909608,0.0,0 STARLINK-6048,1 56459U 23064M   23188.91667824 -.00909608  00000-0 -51250-1 0  9997,2 56459  69.9995  84.9513 0003057 269.0439 283.8568 15.15810600  9439,6896.656,94.999,520.629,516.412,0.0
56459.0,STARLINK-6048,PAYLOAD,2023-07-08 22:00:00,15.13849165,0.0003084,69.9994,82.3645,268.7463,336.0148,-0.053604,-0.009006,0.0,0 STARLINK-6048,1 56459U 23064M   23189.91667824 -.00900600  00000-0 -53604-1 0  9996,2 56459  69.9994  82.3645 0003084 268.7463 336.0148 15.13849165  9586,6902.612,95.122,526.605,522.348,0.0
56459.0,STARLINK-6048,PAYLOAD,2023-07-09 22:00:00,15.11889581,0.0003134,69.9994,79.7855,269.2797,20.2999,-0.056224,-0.00894554,0.0,0 STARLINK-6048,1 56459U 23064M   23190.91667824 -.00894554  00000-0 -56224-1 0  9999,2 56459  69.9994  79.7855 0003134 269.2797  20.2999 15.11889581  9738,6908.575,95.245,532.605,528.275,0.0
56459.0,STARLINK-6048,PAYLOAD,2023-07-10 14:00:01,15.1059558,0.0003176,69.9995,78.0711,264.6687,50.865,-0.057784,-0.00887423,0.0,0 STARLINK-6048,1 56459U 23064M   23191.58334491 -.00887423  00000-0 -57784-1 0  9993,2 56459  69.9995  78.0711 0003176 264.6687  50.8650 15.10595580  9831,6912.519,95.327,536.58,532.189,0.0
56459.0,STARLINK-6048,PAYLOAD,2023-07-11 06:00:00,15.09328621,0.0003081,69.9993,76.359,272.3426,66.0221,-0.065726,-0.00967967,0.0,0 STARLINK-6048,1 56459U 23064M   23192.25001157 -.00967967  00000-0 -65726-1 0  9995,2 56459  69.9993  76.3590 0003081 272.3426  66.0221 15.09328621  9939,6916.387,95.407,540.383,536.121,0.0
56459.0,STARLINK-6048,PAYLOAD,2023-07-11 22:00:00,15.07974083,0.0003179,69.9998,74.6509,271.0563,87.037,-0.06221,-0.00888793,0.0,0 STARLINK-6048,1 56459U 23064M   23192.91667824 -.00888793  00000-0 -62210-1 0  9991,2 56459  69.9998  74.6509 0003179 271.0563  87.0370 15.07974083 10040,6920.528,95.492,544.593,540.193,0.0
